0 SL-26 R/B
1 37399U 11018B   13282.21239326  .00001407  00000-0  10000-3 0  4324
2 37399 064.2127 308.5317 7238084 283.5171 011.1782 02.00292965 17824
0 SL-26 R/B
1 37399U 11018B   13283.71018701  .00002965  00000-0  32662+0 0  4337
2 37399 064.2199 308.3524 7236746 283.4942 011.2045 02.00297726 17855
0 SL-26 R/B
1 37399U 11018B   13287.20491298  .00001369  00000-0  10000-3 0  4345
2 37399 064.2194 307.8554 7236048 283.4854 011.2009 02.00307042 17925
0 SL-26 R/B
1 37399U 11018B   13289.70098225  .00001307  00000-0  10000-3 0  4358
2 37399 064.2235 307.5170 7235000 283.4702 011.1752 02.00314264 17974
0 SL-26 R/B
1 37399U 11018B   13292.19697053  .00001302  00000-0  10000-3 0  4365
2 37399 064.2270 307.1794 7233857 283.4545 011.1590 02.00321561 18029
0 SL-26 R/B
1 37399U 11018B   13292.69615575  .00001308  00000-0  10000-3 0  4376
2 37399 064.2285 307.1113 7233473 283.4520 011.1652 02.00323151 18034
0 SL-26 R/B
1 37399U 11018B   13293.69450479  .00001327  00000-0  10000-3 0  4389
2 37399 064.2309 306.9752 7233078 283.4447 011.1609 02.00326235 18056
0 SL-26 R/B
1 37399U 11018B   13296.19039610  .00001372  00000-0  10000-3 0  4398
2 37399 064.2341 306.6379 7232191 283.4282 011.1814 02.00333579 18109
